STARLINK-32835          
1 63051C 25034Y   26182.25465278 -.00247220  00000+0 -73031-2 0  1825
2 63051  53.1582 101.6810 0001389  78.6436 100.6273 15.34518578    10
STARLINK-11550 [DTC]    
1 63052C 25035A   26182.27756944 -.00071011  00000+0 -55100-3 0  1823
2 63052  43.0010  50.4591 0001716 261.7963 244.8522 15.70896940    16
STARLINK-11563 [DTC]    
1 63053C 25035B   26182.22826389  .00019664  00000+0  15251-3 0  1827
2 63053  43.0008  50.8308 0001830 262.8511 294.5788 15.70862004    12
STARLINK-11347 [DTC]    
1 63054C 25035C   26182.24562500 -.00007580  00000+0 -58801-4 0  1827
2 63054  43.0008  51.1730 0001805 270.4647 204.9001 15.70870017    19
STARLINK-11558 [DTC]    
1 63055C 25035D   26182.24631944 -.00031877  00000+0 -24729-3 0  1824
2 63055  43.0009  50.4224 0001819 268.1317 151.7740 15.70882050    13
STARLINK-11392 [DTC]    
1 63056C 25035E   26182.25812500 -.00055759  00000+0 -43254-3 0  1824
2 63056  43.0008  50.9474 0001937 268.8486 337.4076 15.70894924    18
STARLINK-11406 [DTC]    
1 63057C 25035F   26182.23520833  .00014506  00000+0  11253-3 0  1825
2 63057  43.0008  50.8601 0001753 262.1155 304.5693 15.70859555    17
STARLINK-11418 [DTC]    
1 63058C 25035G   26182.28104167 -.00080377  00000+0 -62352-3 0  1826
2 63058  43.0009  51.0327 0002005 267.5281  18.2991 15.70906182    16
STARLINK-11509 [DTC]    
1 63059C 25035H   26182.25534722 -.00043131  00000+0 -33461-3 0  1824
2 63059  43.0009  51.0367 0001853 268.1319 292.3416 15.70887251    12
STARLINK-11403 [DTC]    
1 63060C 25035J   26182.25951389 -.00058337  00000+0 -45260-3 0  1822
2 63060  43.0007  50.8612 0001872 269.8577  14.3179 15.70893287    11
STARLINK-11409 [DTC]    
1 63061C 25035K   26182.22340278  .00073400  00000+0  56952-3 0  1825
2 63061  43.0007  51.1659 0001577 278.3241 126.1974 15.70826446    10
STARLINK-11412 [DTC]    
1 63062C 25035L   26182.22756944  .00051664  00000+0  40056-3 0  1823
2 63062  43.0009  50.9781 0001904 276.4518 216.8295 15.70854583    12
STARLINK-11399 [DTC]    
1 63063C 25035M   26182.29284722 -.00104860  00000+0 -81386-3 0  1821
2 63063  43.0008  50.2842 0001884 263.3734 359.8454 15.70907049    16
STARLINK-11408 [DTC]    
1 63064C 25035N   26182.22131944  .00019895  00000+0  15437-3 0  1827
2 63064  43.0009  50.6407 0001872 264.7810 343.5194 15.70851940    15
STARLINK-33635          
1 63065C 25035P   26182.23243056 -.00034121  00000+0 -12355-2 0  1823
2 63065  42.9986 225.8247 0001373 272.2029 134.7582 15.27605303    11
STARLINK-33622          
1 63066C 25035Q   26182.21854167 -.00013962  00000+0 -50594-3 0  1821
2 63066  42.9986 225.6581 0001368 273.6146 155.8912 15.27571238    10
STARLINK-33628          
1 63067C 25035R   26182.22687500 -.00034345  00000+0 -12428-2 0  1829
2 63067  43.0019 226.0933 0001374 264.3099  13.0334 15.27626629    15
STARLINK-33627          
1 63068C 25035S   26182.27270833 -.00041575  00000+0 -15056-2 0  1825
2 63068  43.0006 225.7301 0001332 265.2048 306.9266 15.27605196    19
STARLINK-33620          
1 63069C 25035T   26182.23868056 -.00035998  00000+0 -13035-2 0  1829
2 63069  42.9998 225.8718 0001335 268.7861 137.2203 15.27605786    16
STARLINK-33604          
1 63070C 25035U   26182.26784722 -.00022364  00000+0 -81010-3 0  1823
2 63070  43.0002 226.0553 0001634 269.0788 155.9577 15.27585970    13
STARLINK-33624          
1 63071C 25035V   26182.22756944  .00025582  00000+0  88589-3 0  1826
2 63071  43.0003 222.4884 0001579 321.9317  15.1993 15.29030016    13
STARLINK-33623          
1 63072C 25035W   26182.27895833 -.00045271  00000+0 -16392-2 0  1824
2 63072  43.0013 225.9037 0001935 268.4596 253.1840 15.27609609    16
STARLINK-33586          
1 63073C 25035X   26182.24215278 -.00042692  00000+0 -15460-2 0  1820
2 63073  43.0006 218.7120 0001273 269.8112 241.9684 15.27607037    10
STARLINK-33605          
1 63074C 25035Y   26182.28034722 -.00045577  00000+0 -16506-2 0  1825
2 63074  42.9985 225.3943 0001390 270.0075 104.4394 15.27604306    11
STARLINK-32839          
1 63077C 25037A   26182.22062500 -.00012083  00000+0 -10123-2 0  1824
2 63077  70.0011  68.2946 0002722 272.4207 162.2610 14.98348652    15
STARLINK-32821          
1 63078C 25037B   26182.26923611 -.00044287  00000+0 -37114-2 0  1828
2 63078  70.0011  68.1672 0002673 272.6179  65.1713 14.98354615    17
STARLINK-32817          
1 63079C 25037C   26182.25881944 -.00034455  00000+0 -28873-2 0  1828
2 63079  70.0009  68.0136 0002787 272.8157 166.3677 14.98351611    19
STARLINK-32906          
1 63080C 25037D   26182.22895833 -.00022149  00000+0 -18561-2 0  1829
2 63080  70.0008  68.3661 0002930 273.4896 116.1805 14.98344283    16
STARLINK-32895          
1 63081C 25037E   26182.28798611 -.00047288  00000+0 -39627-2 0  1829
2 63081  70.0010  68.1970 0002914 269.8621 101.4888 14.98357126    16
STARLINK-32933          
1 63082C 25037F   26182.22409722 -.00008930  00000+0 -74741-3 0  1824
2 63082  70.0011  68.2015 0002893 269.4601 251.5586 14.98386032    19
STARLINK-32932          
1 63083C 25037G   26182.26090278 -.00040479  00000+0 -33908-2 0  1824
2 63083  70.0008  68.1401 0002693 268.3205  69.4865 14.98369253    12
STARLINK-32908          
1 63084C 25037H   26182.23312500 -.00021204  00000+0 -17768-2 0  1828
2 63084  70.0010  68.1553 0002898 273.6628 319.4347 14.98346635    11
STARLINK-32505          
1 63085C 25037J   26182.24076389 -.00024517  00000+0 -20544-2 0  1828
2 63085  70.0006  68.3130 0002743 273.1186 202.7122 14.98347852    10
STARLINK-32914          
1 63086C 25037K   26182.23520833 -.00021970  00000+0 -18411-2 0  1826
2 63086  70.0010  68.1728 0002684 274.8410 306.9896 14.98344232    13
STARLINK-32918          
1 63087C 25037L   26182.22687500 -.00016090  00000+0 -13482-2 0  1821
2 63087  70.0010  68.2988 0002775 270.4656 176.3666 14.98345568    15
STARLINK-32912          
1 63088C 25037M   26182.24145833 -.00028492  00000+0 -23875-2 0  1828
2 63088  70.0009  67.9886 0002661 273.4770 138.7194 14.98349608    18
STARLINK-32910          
1 63089C 25037N   26182.27687500 -.00044309  00000+0 -37130-2 0  1828
2 63089  70.0009  68.0943 0002624 272.4382 150.6620 14.98357151    11
STARLINK-32903          
1 63090C 25037P   26182.27687500 -.00041565  00000+0 -34828-2 0  1822
2 63090  70.0009  67.8756 0002709 270.5279 356.0360 14.98357990    14
STARLINK-32925          
1 63091C 25037Q   26182.28868056 -.00045762  00000+0 -38343-2 0  1820
2 63091  70.0009  67.8661 0002900 269.9956  37.7244 14.98360992    17
STARLINK-32924          
1 63092C 25037R   26182.26923611 -.00036311  00000+0 -30425-2 0  1821
2 63092  70.0008  67.9673 0002557 269.8959 247.9492 14.98356126    15
STARLINK-32900          
1 63093C 25037S   26182.21993056 -.00010227  00000+0 -85695-3 0  1825
2 63093  70.0010  68.1650 0002691 273.9742 270.4875 14.98340644    16
STARLINK-32927          
1 63094C 25037T   26182.21576389 -.00011079  00000+0 -92880-3 0  1822
2 63094  70.0014  68.3560 0003114 272.1692  92.2625 14.98323355    12
STARLINK-32907          
1 63095C 25037U   26182.26020833 -.00040015  00000+0 -33533-2 0  1827
2 63095  70.0009  68.1613 0002612 273.1738  38.4383 14.98353092    12
STARLINK-32911          
1 63096C 25037V   26182.21854167 -.00011530  00000+0 -96613-3 0  1827
2 63096  70.0008  68.3928 0001590 278.2270  56.0394 14.98343590    14
STARLINK-32923          
1 63097C 25037W   26182.22826389 -.00023093  00000+0 -19351-2 0  1824
2 63097  70.0008  68.0447 0002536 273.0478  46.3828 14.98346791    12
STARLINK-32913          
1 63098C 25037X   26182.25534722 -.00035404  00000+0 -29665-2 0  1823
2 63098  70.0008  68.0439 0002948 273.2000 124.7429 14.98356219    18
STARLINK-11629 [DTC]    
1 63104C 25039A   26182.24770833  .00061661  00000+0  47872-3 0  1820
2 63104  43.0000 272.1210 0001488 258.0088 252.7244 15.70818269    14
STARLINK-11624 [DTC]    
1 63105C 25039B   26182.28729167  .00086972  00000+0  67481-3 0  1829
2 63105  43.0001 272.4938 0001587 264.8082 224.3848 15.70820026    14
STARLINK-11584 [DTC]    
1 63106C 25039C   26182.26368056  .00096333  00000+0  74778-3 0  1823
2 63106  43.0000 272.6225 0001641 263.3955  97.2849 15.70804480    13
STARLINK-11627 [DTC]    
1 63107C 25039D   26182.28868056  .00084110  00000+0  65286-3 0  1825
2 63107  42.9998 272.0230 0001496 280.6929  41.8971 15.70812408    19
STARLINK-11632 [DTC]    
1 63108C 25039E   26182.26506944  .00092782  00000+0  72010-3 0  1826
2 63108  43.0001 272.3891 0001528 265.4614 193.2578 15.70810563    16
STARLINK-11625 [DTC]    
1 63109C 25039F   26182.24354167  .00099076  00000+0  76896-3 0  1822
2 63109  43.0001 272.5927 0001631 262.5010  44.2687 15.70806664    15
STARLINK-11601 [DTC]    
1 63110C 25039G   26182.22270833  .00099316  00000+0  77106-3 0  1821
2 63110  42.9999 272.4935 0001429 264.9359  14.0723 15.70799803    18
STARLINK-11630 [DTC]    
1 63111C 25039H   26182.24423611  .00095127  00000+0  73839-3 0  1823
2 63111  43.0001 272.6622 0001595 260.0818  20.5630 15.70806138    10
STARLINK-11590 [DTC]    
1 63112C 25039J   26182.21229167  .00072049  00000+0  55946-3 0  1828
2 63112  43.0000 273.0037 0001564 264.5884 135.0721 15.70809052    14
STARLINK-11598 [DTC]    
1 63113C 25039K   26182.23381944  .00098062  00000+0  76147-3 0  1822
2 63113  43.0000 272.4999 0001400 259.6572  52.2074 15.70796017    10
STARLINK-11600 [DTC]    
1 63114C 25039L   26182.27895833  .00076057  00000+0  59045-3 0  1822
2 63114  43.0000 272.0032 0001495 257.8467  39.7662 15.70812561    18
STARLINK-11597 [DTC]    
1 63115C 25039M   26182.22618056  .00065140  00000+0  50571-3 0  1824
2 63115  43.0000 272.1708 0001510 259.5174 159.3864 15.70817656    15
STARLINK-11591 [DTC]    
1 63116C 25039N   26182.22131944  .00066853  00000+0  51905-3 0  1825
2 63116  42.9999 272.1252 0001373 261.2600 160.1830 15.70814842    13
